[{"OBJECT_NAME":"STARLINK-35732","OBJECT_ID":"2025-294H","EPOCH":"2026-03-09T09:50:29.031072","MEAN_MOTION":15.27571643,"ECCENTRICITY":0.00012584,"INCLINATION":43.0011,"RA_OF_ASC_NODE":39.8888,"ARG_OF_PERICENTER":340.4225,"MEAN_ANOMALY":19.6578,"EPHEMERIS_TYPE":0,"CLASSIFICATION_TYPE":"U","NORAD_CAT_ID":67037,"ELEMENT_SET_NO":999,"REV_AT_EPOCH":1475,"BSTAR":0.0012356827,"MEAN_MOTION_DOT":0.00033889,"MEAN_MOTION_DDOT":0},{"OBJECT_NAME":"COSMOS 1174","OBJECT_ID":"1980-030A","EPOCH":"2026-03-09T17:59:04.929504","MEAN_MOTION":14.57287568,"ECCENTRICITY":0.04764693,"INCLINATION":66.08,"RA_OF_ASC_NODE":145.2035,"ARG_OF_PERICENTER":169.2768,"MEAN_ANOMALY":191.8955,"EPHEMERIS_TYPE":0,"CLASSIFICATION_TYPE":"U","NORAD_CAT_ID":11765,"ELEMENT_SET_NO":999,"REV_AT_EPOCH":36443,"BSTAR":0.00027813385,"MEAN_MOTION_DOT":6.298e-5,"MEAN_MOTION_DDOT":0}]
